BANDWAGON-2 OBJECT D    
1 62380U 24247D   26068.52261193  .00011259  00000+0  40119-3 0  9994
2 62380  44.9954 115.6710 0003488 351.1453   8.9368 15.29076102 67732
STARLINK-35509          
1 66199U 25243Y   26068.80712287  .00027681  00000+0  94307-3 0  9993
2 66199  53.1599 244.5686 0000963  64.9004 295.2097 15.30205868 20678
